{"fetched_at":"2026-03-30T06:02:59Z","count":15439,"tles":[{"name":"STARLINK-2381","line1":"1 47800U 21018P   26087.86214886 -.00000909  00000+0 -42155-4 0  9997","line2":"2 47800  53.0543 145.5506 0000982  76.5648 283.5450 15.06400877279768","category":"Starlink"}]}